[
    {
        "CCSDS_OMM_VERS": "3.0",
        "COMMENT": "GENERATED VIA SPACE-TRACK.ORG API",
        "CREATION_DATE": "2025-05-03T17:28:03",
        "ORIGINATOR": "18 SPCS",
        "OBJECT_NAME": "NAVSTAR 71 (USA 256)",
        "OBJECT_ID": "2014-045A",
        "CENTER_NAME": "EARTH",
        "REF_FRAME": "TEME",
        "TIME_SYSTEM": "UTC",
        "MEAN_ELEMENT_THEORY": "SGP4",
        "EPOCH": "2025-05-03T05:16:49.344384",
        "MEAN_MOTION": "2.00558048",
        "ECCENTRICITY": "0.00281620",
        "INCLINATION": "55.0948",
        "RA_OF_ASC_NODE": "104.8192",
        "ARG_OF_PERICENTER": "116.9673",
        "MEAN_ANOMALY": "243.3054",
        "EPHEMERIS_TYPE": "0",
        "CLASSIFICATION_TYPE": "U",
        "NORAD_CAT_ID": "40105",
        "ELEMENT_SET_NO": "999",
        "REV_AT_EPOCH": "7785",
        "BSTAR": "0.00000000000000",
        "MEAN_MOTION_DOT": "0.00000033",
        "MEAN_MOTION_DDOT": "0.0000000000000",
        "SEMIMAJOR_AXIS": "26560.838",
        "PERIOD": "717.997",
        "APOAPSIS": "20257.504",
        "PERIAPSIS": "20107.903",
        "OBJECT_TYPE": "PAYLOAD",
        "RCS_SIZE": "LARGE",
        "COUNTRY_CODE": "US",
        "LAUNCH_DATE": "2014-08-02",
        "SITE": "AFETR",
        "DECAY_DATE": null,
        "FILE": "4717971",
        "GP_ID": "286760484",
        "TLE_LINE0": "0 NAVSTAR 71 (USA 256)",
        "TLE_LINE1": "1 40105U 14045A   25123.22001556  .00000033  00000-0  00000-0 0  9994",
        "TLE_LINE2": "2 40105  55.0948 104.8192 0028162 116.9673 243.3054  2.00558048 77850"
    }
]